{
    "links": {
        "self": "http://www.neowsapp.com/rest/v1/neo/3656922?api_key=iIulBulltgU6a56xZRHN4H3l9WmuAYTsLGpBGhQ2"
    },
    "id": "3656922",
    "neo_reference_id": "3656922",
    "name": "(2014 BK3)",
    "designation": "2014 BK3",
    "nasa_jpl_url": "http://ssd.jpl.nasa.gov/sbdb.cgi?sstr=3656922",
    "absolute_magnitude_h": 24.5,
    "estimated_diameter": {
        "kilometers": {
            "estimated_diameter_min": 0.0334622374,
            "estimated_diameter_max": 0.0748238376
        },
        "meters": {
            "estimated_diameter_min": 33.4622374455,
            "estimated_diameter_max": 74.8238376074
        },
        "miles": {
            "estimated_diameter_min": 0.0207924639,
            "estimated_diameter_max": 0.0464933628
        },
        "feet": {
            "estimated_diameter_min": 109.7842471007,
            "estimated_diameter_max": 245.4850393757
        }
    },
    "is_potentially_hazardous_asteroid": false,
    "close_approach_data": [
        {
            "close_approach_date": "1904-10-21",
            "close_approach_date_full": "1904-Oct-21 18:21",
            "epoch_date_close_approach": -2057377140000,
            "relative_velocity": {
                "kilometers_per_second": "11.7487674436",
                "kilometers_per_hour": "42295.5627968563",
                "miles_per_hour": "26280.8178945244"
            },
            "miss_distance": {
                "astronomical": "0.2479102328",
                "lunar": "96.4370805592",
                "kilometers": "37086842.778084136",
                "miles": "23044695.5055716368"
            },
            "orbiting_body": "Earth"
        },
        {
            "close_approach_date": "2014-01-07",
            "close_approach_date_full": "2014-Jan-07 16:36",
            "epoch_date_close_approach": 1389112560000,
            "relative_velocity": {
                "kilometers_per_second": "8.1035316599",
                "kilometers_per_hour": "29172.7139754831",
                "miles_per_hour": "18126.7899699328"
            },
            "miss_distance": {
                "astronomical": "0.0635983433",
                "lunar": "24.7397555437",
                "kilometers": "9514176.693208771",
                "miles": "5911835.2617161998"
            },
            "orbiting_body": "Earth"
        },
        {
            "close_approach_date": "2105-10-07",
            "close_approach_date_full": "2105-Oct-07 13:17",
            "epoch_date_close_approach": 4284364620000,
            "relative_velocity": {
                "kilometers_per_second": "19.7551862967",
                "kilometers_per_hour": "71118.67066812",
                "miles_per_hour": "44190.3762270882"
            },
            "miss_distance": {
                "astronomical": "0.476565172",
                "lunar": "185.383851908",
                "kilometers": "71293134.64738364",
                "miles": "44299499.674788632"
            },
            "orbiting_body": "Earth"
        },
        {
            "close_approach_date": "2108-01-31",
            "close_approach_date_full": "2108-Jan-31 20:27",
            "epoch_date_close_approach": 4357484820000,
            "relative_velocity": {
                "kilometers_per_second": "15.6298209202",
                "kilometers_per_hour": "56267.3553128662",
                "miles_per_hour": "34962.3464164862"
            },
            "miss_distance": {
                "astronomical": "0.2708809353",
                "lunar": "105.3726838317",
                "kilometers": "40523210.944487811",
                "miles": "25179955.6708453518"
            },
            "orbiting_body": "Earth"
        }
    ],
    "orbital_data": {
        "orbit_id": "8",
        "orbit_determination_date": "2017-04-06 08:42:47",
        "first_observation_date": "2014-01-21",
        "last_observation_date": "2014-01-30",
        "data_arc_in_days": 9,
        "observations_used": 30,
        "orbit_uncertainty": "8",
        "minimum_orbit_intersection": ".0575868",
        "jupiter_tisserand_invariant": "4.149",
        "epoch_osculation": "2456682.5",
        "eccentricity": ".4127514062313266",
        "semi_major_axis": "1.659828139370791",
        "inclination": "9.805828150297048",
        "ascending_node_longitude": "304.3068038533982",
        "orbital_period": "781.0756723853265",
        "perihelion_distance": ".9747317407431704",
        "perihelion_argument": "132.8350984511192",
        "aphelion_distance": "2.344924537998411",
        "perihelion_time": "2456638.782144702407",
        "mean_anomaly": "20.14968390843605",
        "mean_motion": ".4609028455598883",
        "equinox": "J2000",
        "orbit_class": {
            "orbit_class_type": "APO",
            "orbit_class_description": "Near-Earth asteroid orbits which cross the Earth’s orbit similar to that of 1862 Apollo",
            "orbit_class_range": "a (semi-major axis) > 1.0 AU; q (perihelion) < 1.017 AU"
        }
    },
    "is_sentry_object": false
}